COSMOS 2433 (720)       
1 32275U 07052A   26197.94812885 -.00000066  00000+0  00000+0 0  9994
2 32275  65.5585 314.9323 0003584 203.6776 156.3207  2.13104076145694
COSMOS 2432 (719)       
1 32276U 07052B   26198.99356594 -.00000071  00000+0  00000+0 0  9997
2 32276  65.5737 315.0256 0007385 321.4557  64.3372  2.13103034145740
COSMOS 2434 (721)       
1 32393U 07065A   26199.49568220  .00000065  00000+0  00000+0 0  9990
2 32393  64.3202 190.8597 0001233 326.9616  29.9549  2.13101158144436
COSMOS 2436 (723)       
1 32395U 07065C   26199.28849456  .00000063  00000+0  00000+0 0  9990
2 32395  64.3288 190.9392 0017313 353.5645 336.5835  2.13099948144382
COSMOS 2456 (730)       
1 36111U 09070A   26197.17812943 -.00000016  00000+0  00000+0 0  9994
2 36111  65.0282  69.9837 0003619 341.3386 195.9451  2.13103565129042
COSMOS 2457 (733)       
1 36112U 09070B   26197.06975485 -.00000016  00000+0  00000+0 0  9994
2 36112  65.0138  69.8308 0004103 121.4707  99.8167  2.13101089129043
COSMOS 2460 (732)       
1 36402U 10007C   26199.35669755 -.00000072  00000+0  00000+0 0  9994
2 36402  65.4006 313.4121 0001849 148.1871  29.5036  2.13101436127393
COSMOS 2476 (744)       
1 37867U 11064A   26199.17433977 -.00000032  00000+0  00000+0 0  9995
2 37867  65.2874  71.8256 0022067 235.6441 301.3919  2.13103618114429
COSMOS 2477 (745)       
1 37868U 11064B   26196.15395625 -.00000010  00000+0  00000+0 0  9994
2 37868  65.2921  72.0075 0019117 236.8947 323.2552  2.13102912114355
COSMOS 2475 (743)       
1 37869U 11064C   26198.80033905 -.00000028  00000+0  00000+0 0  9998
2 37869  65.3005  71.9400 0024690 250.9775 134.3774  2.13101626114424
COSMOS 2485 (747)       
1 39155U 13019A   26198.41189181 -.00000024  00000+0  00000+0 0  9991
2 39155  65.4363  72.5906 0022584 230.9016 128.9717  2.13103096102927
COSMOS 2492 (754)       
1 39620U 14012A   26197.43221882 -.00000064  00000+0  00000+0 0  9992
2 39620  65.2787 312.9423 0010294 317.3344  42.6017  2.13103163 95860
COSMOS 2500 (755)       
1 40001U 14032A   26198.54011649 -.00000068  00000+0  00000+0 0  9994
2 40001  65.2130 312.6492 0008348 190.7929 169.2087  2.13105727 94106
COSMOS 2501 (702K)      
1 40315U 14075A   26195.04843601  .00000065  00000+0  00000+0 0  9998
2 40315  63.6185 189.4424 0022586 212.6579 147.2095  2.13101105 90428
COSMOS 2514 (751)       
1 41330U 16008A   26199.25635627 -.00000071  00000+0  00000+0 0  9996
2 41330  65.0010 311.9403 0012407 201.5271 158.4424  2.13102573 81289
COSMOS 2522 (752)       
1 42939U 17055A   26199.09397106  .00000060  00000+0  00000+0 0  9991
2 42939  64.0809 190.8323 0010876 240.6480 119.2397  2.13101776 68631
COSMOS 2527 (756)       
1 43508U 18053A   26196.70970326 -.00000011  00000+0  00000+0 0  9996
2 43508  65.5932  72.9565 0006433 229.6804 130.3403  2.13102044 62888
COSMOS 2529 (757)       
1 43687U 18086A   26197.27515200  .00000052  00000+0  00000+0 0  9993
2 43687  64.2972 191.6121 0012126 256.3116 103.5531  2.13101958 59908
COSMOS 2534 (758)       
1 44299U 19030A   26197.64953360  .00000052  00000+0  00000+0 0  9997
2 44299  64.3705 191.6243 0013502 275.0108 146.6615  2.13102191 55554
COSMOS 2544 (759)       
1 44850U 19088A   26198.53131997 -.00000024  00000+0  00000+0 0  9996
2 44850  65.5819  72.7186 0012088 253.3927 106.5489  2.13102863 51362
COSMOS 2545 (760)       
1 45358U 20018A   26198.72624926 -.00000069  00000+0  00000+0 0  9994
2 45358  64.3350 311.3457 0009663 229.7748 130.1625  2.13102350 49317
COSMOS 2547 (705K)      
1 46805U 20075A   26196.56966866  .00000054  00000+0  00000+0 0  9990
2 46805  64.6014 191.5282 0009458 239.8249 120.0839  2.13099910 44518
COSMOS 2557 (706K)      
1 52984U 22075A   26196.73380763 -.00000064  00000+0  00000+0 0  9994
2 52984  64.2802 313.4798 0010855 271.2186  88.6706  2.13102146 31327
COSMOS 2559 (707K)      
1 54031U 22130A   26198.89981604 -.00000072  00000+0  00000+0 0  9990
2 54031  64.2511 313.4857 0013130 181.3333 178.6825  2.13101711 29347
COSMOS 2564 (761)       
1 54377U 22161A   26198.74291069  .00000058  00000+0  00000+0 0  9993
2 54377  64.7440 191.6974 0012202 224.8378 135.0614  2.13102013 28284
COSMOS 2569 (703K)      
1 57517U 23114A   26196.87819896 -.00000013  00000+0  00000+0 0  9999
2 57517  65.3185  71.6532 0009655 295.9092  64.0686  2.13103741 22871
COSMOS 2584 (704K)      
1 63130U 25042A   26194.88797737 -.00000010  00000+0  00000+0 0  9994
2 63130  65.0996  71.8945 0005460 213.8001 146.2394  2.13103784 10610
COSMOS 2596 (708K)      
1 65590U 25206B   26198.99341808 -.00000072  00000+0  00000+0 0  9996
2 65590  64.6146 313.9125 0011176 307.2870  78.3263  2.13100823  6578
